[{"OBJECT_NAME":"TRANSPORTER-13 OBJECT M","OBJECT_ID":"2025-052M","EPOCH":"2026-03-09T16:54:10.026144","MEAN_MOTION":15.21138155,"ECCENTRICITY":0.00049134,"INCLINATION":97.4005,"RA_OF_ASC_NODE":322.6064,"ARG_OF_PERICENTER":116.6212,"MEAN_ANOMALY":243.5528,"EPHEMERIS_TYPE":0,"CLASSIFICATION_TYPE":"U","NORAD_CAT_ID":63221,"ELEMENT_SET_NO":999,"REV_AT_EPOCH":5471,"BSTAR":0.00025482264,"MEAN_MOTION_DOT":5.606e-5,"MEAN_MOTION_DDOT":0},{"OBJECT_NAME":"TRANSPORTER-15 OBJECT H","OBJECT_ID":"2025-276H","EPOCH":"2026-03-09T17:32:53.221056","MEAN_MOTION":15.1998776,"ECCENTRICITY":0.00060412,"INCLINATION":97.4225,"RA_OF_ASC_NODE":143.9657,"ARG_OF_PERICENTER":14.2077,"MEAN_ANOMALY":345.9327,"EPHEMERIS_TYPE":0,"CLASSIFICATION_TYPE":"U","NORAD_CAT_ID":66673,"ELEMENT_SET_NO":999,"REV_AT_EPOCH":1532,"BSTAR":0.00046258032,"MEAN_MOTION_DOT":9.902e-5,"MEAN_MOTION_DDOT":0}]
